{"type":"FeatureCollection","name":"Natural Earth 1:10m populated places (public domain), clipped to the Colombia region","features":[{"type":"Feature","properties":{"name":"San Carlos","scalerank":9,"pop_max":77192,"adm0_a3":"VEN","adm0cap":0},"geometry":{"type":"Point","coordinates":[-68.59,9.658]}},{"type":"Feature","properties":{"name":"San Felipe","scalerank":9,"pop_max":76766,"adm0_a3":"VEN","adm0cap":0},"geometry":{"type":"Point","coordinates":[-68.746,10.336]}},{"type":"Feature","properties":{"name":"San Juan De Los Morros","scalerank":9,"pop_max":87739,"adm0_a3":"VEN","adm0cap":0},"geometry":{"type":"Point","coordinates":[-67.354,9.901]}},{"type":"Feature","properties":{"name":"El Porvenir","scalerank":9,"pop_max":10,"adm0_a3":"PAN","adm0cap":0},"geometry":{"type":"Point","coordinates":[-78.972,9.5417]}},{"type":"Feature","properties":{"name":"Puyo","scalerank":9,"pop_max":24881,"adm0_a3":"ECU","adm0cap":0},"geometry":{"type":"Point","coordinates":[-77.987,-1.483]}},{"type":"Feature","properties":{"name":"Tulcán","scalerank":9,"pop_max":83000,"adm0_a3":"ECU","adm0cap":0},"geometry":{"type":"Point","coordinates":[-77.732,0.822]}},{"type":"Feature","properties":{"name":"Yopal","scalerank":9,"pop_max":61029,"adm0_a3":"COL","adm0cap":0},"geometry":{"type":"Point","coordinates":[-72.406,5.347]}},{"type":"Feature","properties":{"name":"San Andrés","scalerank":9,"pop_max":58257,"adm0_a3":"COL","adm0cap":0},"geometry":{"type":"Point","coordinates":[-81.6903,12.5621]}},{"type":"Feature","properties":{"name":"Guasdualito","scalerank":8,"pop_max":30860,"adm0_a3":"VEN","adm0cap":0},"geometry":{"type":"Point","coordinates":[-70.74,7.24]}},{"type":"Feature","properties":{"name":"Barinas","scalerank":8,"pop_max":284289,"adm0_a3":"VEN","adm0cap":0},"geometry":{"type":"Point","coordinates":[-70.25,8.6]}},{"type":"Feature","properties":{"name":"Valera","scalerank":8,"pop_max":191167,"adm0_a3":"VEN","adm0cap":0},"geometry":{"type":"Point","coordinates":[-70.62,9.32]}},{"type":"Feature","properties":{"name":"Cabimas","scalerank":8,"pop_max":441094,"adm0_a3":"VEN","adm0cap":0},"geometry":{"type":"Point","coordinates":[-71.45,10.43]}},{"type":"Feature","properties":{"name":"Carora","scalerank":8,"pop_max":149711,"adm0_a3":"VEN","adm0cap":0},"geometry":{"type":"Point","coordinates":[-70.08,10.19]}},{"type":"Feature","properties":{"name":"Guanare","scalerank":8,"pop_max":151642,"adm0_a3":"VEN","adm0cap":0},"geometry":{"type":"Point","coordinates":[-69.75,9.05]}},{"type":"Feature","properties":{"name":"Puerto la Cruz","scalerank":8,"pop_max":546616,"adm0_a3":"VEN","adm0cap":0},"geometry":{"type":"Point","coordinates":[-64.68,10.17]}},{"type":"Feature","properties":{"name":"Anaco","scalerank":8,"pop_max":117596,"adm0_a3":"VEN","adm0cap":0},"geometry":{"type":"Point","coordinates":[-64.46,9.44]}},{"type":"Feature","properties":{"name":"Los Teques","scalerank":8,"pop_max":303470,"adm0_a3":"VEN","adm0cap":0},"geometry":{"type":"Point","coordinates":[-67.02,10.42]}},{"type":"Feature","properties":{"name":"Valle de la Pascua","scalerank":8,"pop_max":89080,"adm0_a3":"VEN","adm0cap":0},"geometry":{"type":"Point","coordinates":[-66.02,9.21]}},{"type":"Feature","properties":{"name":"Ocumare del Tuy","scalerank":8,"pop_max":166072,"adm0_a3":"VEN","adm0cap":0},"geometry":{"type":"Point","coordinates":[-66.78,10.12]}},{"type":"Feature","properties":{"name":"Nauta","scalerank":8,"pop_max":2500,"adm0_a3":"PER","adm0cap":0},"geometry":{"type":"Point","coordinates":[-73.78,-4.57]}},{"type":"Feature","properties":{"name":"Penonome","scalerank":8,"pop_max":28766,"adm0_a3":"PAN","adm0cap":0},"geometry":{"type":"Point","coordinates":[-80.36,8.51]}},{"type":"Feature","properties":{"name":"Chitré","scalerank":8,"pop_max":44082,"adm0_a3":"PAN","adm0cap":0},"geometry":{"type":"Point","coordinates":[-80.42,7.97]}},{"type":"Feature","properties":{"name":"Jaqué","scalerank":8,"pop_max":1357,"adm0_a3":"PAN","adm0cap":0},"geometry":{"type":"Point","coordinates":[-78.166,7.519]}},{"type":"Feature","properties":{"name":"Piñas","scalerank":8,"pop_max":16981,"adm0_a3":"ECU","adm0cap":0},"geometry":{"type":"Point","coordinates":[-79.65,-3.67]}},{"type":"Feature","properties":{"name":"Guaranda","scalerank":8,"pop_max":27866,"adm0_a3":"ECU","adm0cap":0},"geometry":{"type":"Point","coordinates":[-79.01,-1.61]}},{"type":"Feature","properties":{"name":"Azogues","scalerank":8,"pop_max":69087,"adm0_a3":"ECU","adm0cap":0},"geometry":{"type":"Point","coordinates":[-78.84,-2.74]}},{"type":"Feature","properties":{"name":"Salinas","scalerank":8,"pop_max":43862,"adm0_a3":"ECU","adm0cap":0},"geometry":{"type":"Point","coordinates":[-80.98,-2.2]}},{"type":"Feature","properties":{"name":"Alausí","scalerank":8,"pop_max":14294,"adm0_a3":"ECU","adm0cap":0},"geometry":{"type":"Point","coordinates":[-78.85,-2.19]}},{"type":"Feature","properties":{"name":"Sangolquí","scalerank":8,"pop_max":178582,"adm0_a3":"ECU","adm0cap":0},"geometry":{"type":"Point","coordinates":[-78.46,-0.31]}},{"type":"Feature","properties":{"name":"Sonsón","scalerank":8,"pop_max":18817,"adm0_a3":"COL","adm0cap":0},"geometry":{"type":"Point","coordinates":[-75.3166,5.7166]}},{"type":"Feature","properties":{"name":"Sogamoso","scalerank":8,"pop_max":126551,"adm0_a3":"COL","adm0cap":0},"geometry":{"type":"Point","coordinates":[-72.94,5.72]}},{"type":"Feature","properties":{"name":"Barrancabermeja","scalerank":8,"pop_max":191403,"adm0_a3":"COL","adm0cap":0},"geometry":{"type":"Point","coordinates":[-73.85,7.09]}},{"type":"Feature","properties":{"name":"Muisne","scalerank":8,"pop_max":13393,"adm0_a3":"ECU","adm0cap":0},"geometry":{"type":"Point","coordinates":[-80.02,0.61]}},{"type":"Feature","properties":{"name":"Girardot","scalerank":8,"pop_max":130289,"adm0_a3":"COL","adm0cap":0},"geometry":{"type":"Point","coordinates":[-74.81,4.31]}},{"type":"Feature","properties":{"name":"Campoalegre","scalerank":8,"pop_max":22568,"adm0_a3":"COL","adm0cap":0},"geometry":{"type":"Point","coordinates":[-75.33,2.69]}},{"type":"Feature","properties":{"name":"Túquerres","scalerank":8,"pop_max":33979,"adm0_a3":"COL","adm0cap":0},"geometry":{"type":"Point","coordinates":[-77.62,1.09]}},{"type":"Feature","properties":{"name":"Mocoa","scalerank":8,"pop_max":22035,"adm0_a3":"COL","adm0cap":0},"geometry":{"type":"Point","coordinates":[-76.63,1.15]}},{"type":"Feature","properties":{"name":"Cartago","scalerank":8,"pop_max":134827,"adm0_a3":"COL","adm0cap":0},"geometry":{"type":"Point","coordinates":[-75.91,4.75]}},{"type":"Feature","properties":{"name":"San Gabriel","scalerank":8,"pop_max":16066,"adm0_a3":"ECU","adm0cap":0},"geometry":{"type":"Point","coordinates":[-77.84,0.61]}},{"type":"Feature","properties":{"name":"Soledad","scalerank":8,"pop_max":698852,"adm0_a3":"COL","adm0cap":0},"geometry":{"type":"Point","coordinates":[-74.77,10.92]}},{"type":"Feature","properties":{"name":"Sabanalarga","scalerank":8,"pop_max":68535,"adm0_a3":"COL","adm0cap":0},"geometry":{"type":"Point","coordinates":[-74.92,10.64]}},{"type":"Feature","properties":{"name":"Arjona","scalerank":8,"pop_max":50405,"adm0_a3":"COL","adm0cap":0},"geometry":{"type":"Point","coordinates":[-75.35,10.26]}},{"type":"Feature","properties":{"name":"Magangué","scalerank":8,"pop_max":100313,"adm0_a3":"COL","adm0cap":0},"geometry":{"type":"Point","coordinates":[-74.74,9.23]}},{"type":"Feature","properties":{"name":"Valledupar","scalerank":8,"pop_max":308237,"adm0_a3":"COL","adm0cap":0},"geometry":{"type":"Point","coordinates":[-73.25,10.48]}},{"type":"Feature","properties":{"name":"San José del Guaviare","scalerank":8,"pop_max":22136,"adm0_a3":"COL","adm0cap":0},"geometry":{"type":"Point","coordinates":[-72.64,2.57]}},{"type":"Feature","properties":{"name":"Puerto López","scalerank":8,"pop_max":16678,"adm0_a3":"COL","adm0cap":0},"geometry":{"type":"Point","coordinates":[-72.96,4.09]}},{"type":"Feature","properties":{"name":"Trujillo","scalerank":7,"pop_max":50353,"adm0_a3":"VEN","adm0cap":0},"geometry":{"type":"Point","coordinates":[-70.44,9.3804]}},{"type":"Feature","properties":{"name":"Santa Rita","scalerank":7,"pop_max":31810,"adm0_a3":"VEN","adm0cap":0},"geometry":{"type":"Point","coordinates":[-71.5039,10.5318]}},{"type":"Feature","properties":{"name":"Machiques","scalerank":7,"pop_max":62968,"adm0_a3":"VEN","adm0cap":0},"geometry":{"type":"Point","coordinates":[-72.5499,10.0704]}},{"type":"Feature","properties":{"name":"San Carlos del Zulia","scalerank":7,"pop_max":97288,"adm0_a3":"VEN","adm0cap":0},"geometry":{"type":"Point","coordinates":[-71.92,9.0104]}},{"type":"Feature","properties":{"name":"Puerto Cabello","scalerank":7,"pop_max":174000,"adm0_a3":"VEN","adm0cap":0},"geometry":{"type":"Point","coordinates":[-68.0065,10.4597]}},{"type":"Feature","properties":{"name":"Acarigua","scalerank":7,"pop_max":260921,"adm0_a3":"VEN","adm0cap":0},"geometry":{"type":"Point","coordinates":[-69.2,9.5804]}},{"type":"Feature","properties":{"name":"Chaguaramas","scalerank":7,"pop_max":15000,"adm0_a3":"VEN","adm0cap":0},"geometry":{"type":"Point","coordinates":[-66.2545,9.336]}},{"type":"Feature","properties":{"name":"Barcelona","scalerank":7,"pop_max":600954,"adm0_a3":"VEN","adm0cap":0},"geometry":{"type":"Point","coordinates":[-64.72,10.1304]}},{"type":"Feature","properties":{"name":"El Tigre","scalerank":7,"pop_max":197440,"adm0_a3":"VEN","adm0cap":0},"geometry":{"type":"Point","coordinates":[-64.26,8.8903]}},{"type":"Feature","properties":{"name":"Maiquetía","scalerank":7,"pop_max":315442,"adm0_a3":"VEN","adm0cap":0},"geometry":{"type":"Point","coordinates":[-66.97,10.6004]}},{"type":"Feature","properties":{"name":"Calabozo","scalerank":7,"pop_max":117132,"adm0_a3":"VEN","adm0cap":0},"geometry":{"type":"Point","coordinates":[-67.44,8.9304]}},{"type":"Feature","properties":{"name":"Zaraza","scalerank":7,"pop_max":41483,"adm0_a3":"VEN","adm0cap":0},"geometry":{"type":"Point","coordinates":[-65.32,9.3404]}},{"type":"Feature","properties":{"name":"Altagracia de Orituco","scalerank":7,"pop_max":40052,"adm0_a3":"VEN","adm0cap":0},"geometry":{"type":"Point","coordinates":[-66.38,9.8504]}},{"type":"Feature","properties":{"name":"Olmos","scalerank":7,"pop_max":9800,"adm0_a3":"PER","adm0cap":0},"geometry":{"type":"Point","coordinates":[-79.75,-5.9796]}},{"type":"Feature","properties":{"name":"Sechura","scalerank":7,"pop_max":23020,"adm0_a3":"PER","adm0cap":0},"geometry":{"type":"Point","coordinates":[-80.82,-5.5596]}},{"type":"Feature","properties":{"name":"Chulucanas","scalerank":7,"pop_max":68835,"adm0_a3":"PER","adm0cap":0},"geometry":{"type":"Point","coordinates":[-80.17,-5.0896]}},{"type":"Feature","properties":{"name":"Sullana","scalerank":7,"pop_max":160789,"adm0_a3":"PER","adm0cap":0},"geometry":{"type":"Point","coordinates":[-80.68,-4.8896]}},{"type":"Feature","properties":{"name":"Jaén","scalerank":7,"pop_max":52493,"adm0_a3":"PER","adm0cap":0},"geometry":{"type":"Point","coordinates":[-78.81,-5.7096]}},{"type":"Feature","properties":{"name":"Caballococha","scalerank":7,"pop_max":3195,"adm0_a3":"PER","adm0cap":0},"geometry":{"type":"Point","coordinates":[-70.5083,-3.9163]}},{"type":"Feature","properties":{"name":"Puca Urco","scalerank":7,"pop_max":10,"adm0_a3":"PER","adm0cap":0},"geometry":{"type":"Point","coordinates":[-71.9167,-2.3328]}},{"type":"Feature","properties":{"name":"Andoas","scalerank":7,"pop_max":10,"adm0_a3":"PER","adm0cap":0},"geometry":{"type":"Point","coordinates":[-76.4025,-2.9021]}},{"type":"Feature","properties":{"name":"Soldado Bartra","scalerank":7,"pop_max":10,"adm0_a3":"PER","adm0cap":0},"geometry":{"type":"Point","coordinates":[-75.7666,-2.5161]}},{"type":"Feature","properties":{"name":"Nuevo Rocafuerte","scalerank":7,"pop_max":40,"adm0_a3":"PER","adm0cap":0},"geometry":{"type":"Point","coordinates":[-75.4,-0.9329]}},{"type":"Feature","properties":{"name":"Requena","scalerank":7,"pop_max":18000,"adm0_a3":"PER","adm0cap":0},"geometry":{"type":"Point","coordinates":[-73.91,-5.0696]}},{"type":"Feature","properties":{"name":"Las Tablas","scalerank":7,"pop_max":11358,"adm0_a3":"PAN","adm0cap":0},"geometry":{"type":"Point","coordinates":[-80.28,7.7604]}},{"type":"Feature","properties":{"name":"Santiago","scalerank":7,"pop_max":45955,"adm0_a3":"PAN","adm0cap":0},"geometry":{"type":"Point","coordinates":[-80.9833,8.1004]}},{"type":"Feature","properties":{"name":"La Palma","scalerank":7,"pop_max":1845,"adm0_a3":"PAN","adm0cap":0},"geometry":{"type":"Point","coordinates":[-78.1402,8.3982]}},{"type":"Feature","properties":{"name":"Macará","scalerank":7,"pop_max":13035,"adm0_a3":"ECU","adm0cap":0},"geometry":{"type":"Point","coordinates":[-79.95,-4.3796]}},{"type":"Feature","properties":{"name":"Zamora","scalerank":7,"pop_max":15276,"adm0_a3":"ECU","adm0cap":0},"geometry":{"type":"Point","coordinates":[-78.97,-4.0696]}},{"type":"Feature","properties":{"name":"Latacunga","scalerank":7,"pop_max":94972,"adm0_a3":"ECU","adm0cap":0},"geometry":{"type":"Point","coordinates":[-78.61,-0.9296]}},{"type":"Feature","properties":{"name":"Milagro","scalerank":7,"pop_max":109970,"adm0_a3":"ECU","adm0cap":0},"geometry":{"type":"Point","coordinates":[-79.6,-2.1796]}},{"type":"Feature","properties":{"name":"Babahoyo","scalerank":7,"pop_max":76279,"adm0_a3":"ECU","adm0cap":0},"geometry":{"type":"Point","coordinates":[-79.54,-1.7996]}},{"type":"Feature","properties":{"name":"Chone","scalerank":7,"pop_max":44751,"adm0_a3":"ECU","adm0cap":0},"geometry":{"type":"Point","coordinates":[-80.09,-0.6896]}},{"type":"Feature","properties":{"name":"Jipijapa","scalerank":7,"pop_max":35901,"adm0_a3":"ECU","adm0cap":0},"geometry":{"type":"Point","coordinates":[-80.58,-1.3496]}},{"type":"Feature","properties":{"name":"Yaupi","scalerank":7,"pop_max":293,"adm0_a3":"ECU","adm0cap":0},"geometry":{"type":"Point","coordinates":[-77.9363,-2.8543]}},{"type":"Feature","properties":{"name":"Macas","scalerank":7,"pop_max":23687,"adm0_a3":"ECU","adm0cap":0},"geometry":{"type":"Point","coordinates":[-78.12,-2.3096]}},{"type":"Feature","properties":{"name":"Cayambe","scalerank":7,"pop_max":27881,"adm0_a3":"ECU","adm0cap":0},"geometry":{"type":"Point","coordinates":[-78.16,0.0504]}},{"type":"Feature","properties":{"name":"Ambato","scalerank":7,"pop_max":281425,"adm0_a3":"ECU","adm0cap":0},"geometry":{"type":"Point","coordinates":[-78.62,-1.2696]}},{"type":"Feature","properties":{"name":"Tena","scalerank":7,"pop_max":31126,"adm0_a3":"ECU","adm0cap":0},"geometry":{"type":"Point","coordinates":[-77.81,-0.9796]}},{"type":"Feature","properties":{"name":"Yarumal","scalerank":7,"pop_max":35315,"adm0_a3":"COL","adm0cap":0},"geometry":{"type":"Point","coordinates":[-75.5905,7.0306]}},{"type":"Feature","properties":{"name":"Puerto Berrío","scalerank":7,"pop_max":33983,"adm0_a3":"COL","adm0cap":0},"geometry":{"type":"Point","coordinates":[-74.42,6.4804]}},{"type":"Feature","properties":{"name":"Turbo","scalerank":7,"pop_max":50508,"adm0_a3":"COL","adm0cap":0},"geometry":{"type":"Point","coordinates":[-76.74,8.1004]}},{"type":"Feature","properties":{"name":"Tunja","scalerank":7,"pop_max":161412,"adm0_a3":"COL","adm0cap":0},"geometry":{"type":"Point","coordinates":[-73.37,5.5504]}},{"type":"Feature","properties":{"name":"Chiquinquirá","scalerank":7,"pop_max":53975,"adm0_a3":"COL","adm0cap":0},"geometry":{"type":"Point","coordinates":[-73.8199,5.6204]}},{"type":"Feature","properties":{"name":"Duitama","scalerank":7,"pop_max":101156,"adm0_a3":"COL","adm0cap":0},"geometry":{"type":"Point","coordinates":[-73.02,5.8305]}},{"type":"Feature","properties":{"name":"Ayapel","scalerank":7,"pop_max":23639,"adm0_a3":"COL","adm0cap":0},"geometry":{"type":"Point","coordinates":[-75.15,8.3304]}},{"type":"Feature","properties":{"name":"Lorica","scalerank":7,"pop_max":52771,"adm0_a3":"COL","adm0cap":0},"geometry":{"type":"Point","coordinates":[-75.816,9.2419]}},{"type":"Feature","properties":{"name":"Socorro","scalerank":7,"pop_max":24895,"adm0_a3":"COL","adm0cap":0},"geometry":{"type":"Point","coordinates":[-73.27,6.4603]}},{"type":"Feature","properties":{"name":"Riohacha","scalerank":7,"pop_max":133186,"adm0_a3":"COL","adm0cap":0},"geometry":{"type":"Point","coordinates":[-72.91,11.5403]}},{"type":"Feature","properties":{"name":"Valdez","scalerank":7,"pop_max":11441,"adm0_a3":"ECU","adm0cap":0},"geometry":{"type":"Point","coordinates":[-78.9855,1.2671]}},{"type":"Feature","properties":{"name":"San Lorenzo","scalerank":7,"pop_max":20209,"adm0_a3":"ECU","adm0cap":0},"geometry":{"type":"Point","coordinates":[-78.8601,1.2704]}},{"type":"Feature","properties":{"name":"Esmeraldas","scalerank":7,"pop_max":173101,"adm0_a3":"ECU","adm0cap":0},"geometry":{"type":"Point","coordinates":[-79.67,0.9304]}},{"type":"Feature","properties":{"name":"Armenia","scalerank":7,"pop_max":315328,"adm0_a3":"COL","adm0cap":0},"geometry":{"type":"Point","coordinates":[-75.6811,4.5343]}},{"type":"Feature","properties":{"name":"Pereira","scalerank":7,"pop_max":568750,"adm0_a3":"COL","adm0cap":0},"geometry":{"type":"Point","coordinates":[-75.68,4.8104]}},{"type":"Feature","properties":{"name":"Honda","scalerank":7,"pop_max":35469,"adm0_a3":"COL","adm0cap":0},"geometry":{"type":"Point","coordinates":[-74.75,5.1903]}},{"type":"Feature","properties":{"name":"San Vicente del Caguán","scalerank":7,"pop_max":1500,"adm0_a3":"COL","adm0cap":0},"geometry":{"type":"Point","coordinates":[-74.7703,2.1095]}},{"type":"Feature","properties":{"name":"Florencia","scalerank":7,"pop_max":130337,"adm0_a3":"COL","adm0cap":0},"geometry":{"type":"Point","coordinates":[-75.62,1.6104]}},{"type":"Feature","properties":{"name":"Guapi","scalerank":7,"pop_max":13853,"adm0_a3":"COL","adm0cap":0},"geometry":{"type":"Point","coordinates":[-77.86,2.5604]}},{"type":"Feature","properties":{"name":"Neiva","scalerank":7,"pop_max":352855,"adm0_a3":"COL","adm0cap":0},"geometry":{"type":"Point","coordinates":[-75.3302,2.931]}},{"type":"Feature","properties":{"name":"Garzón","scalerank":7,"pop_max":56603,"adm0_a3":"COL","adm0cap":0},"geometry":{"type":"Point","coordinates":[-75.65,2.2104]}},{"type":"Feature","properties":{"name":"Ipiales","scalerank":7,"pop_max":109618,"adm0_a3":"COL","adm0cap":0},"geometry":{"type":"Point","coordinates":[-77.65,0.8304]}},{"type":"Feature","properties":{"name":"Buenaventura","scalerank":7,"pop_max":252805,"adm0_a3":"COL","adm0cap":0},"geometry":{"type":"Point","coordinates":[-77.0505,3.8724]}},{"type":"Feature","properties":{"name":"Tuluá","scalerank":7,"pop_max":165501,"adm0_a3":"COL","adm0cap":0},"geometry":{"type":"Point","coordinates":[-76.21,4.0904]}},{"type":"Feature","properties":{"name":"Ibarra","scalerank":7,"pop_max":146741,"adm0_a3":"ECU","adm0cap":0},"geometry":{"type":"Point","coordinates":[-78.13,0.3604]}},{"type":"Feature","properties":{"name":"El Carmen de Bolívar","scalerank":7,"pop_max":60980,"adm0_a3":"COL","adm0cap":0},"geometry":{"type":"Point","coordinates":[-75.13,9.7204]}},{"type":"Feature","properties":{"name":"Juradó","scalerank":7,"pop_max":2351,"adm0_a3":"COL","adm0cap":0},"geometry":{"type":"Point","coordinates":[-77.7564,7.1217]}},{"type":"Feature","properties":{"name":"Nuquí","scalerank":7,"pop_max":2741,"adm0_a3":"COL","adm0cap":0},"geometry":{"type":"Point","coordinates":[-77.2745,5.6852]}},{"type":"Feature","properties":{"name":"Quibdó","scalerank":7,"pop_max":92780,"adm0_a3":"COL","adm0cap":0},"geometry":{"type":"Point","coordinates":[-76.66,5.6904]}},{"type":"Feature","properties":{"name":"El Banco","scalerank":7,"pop_max":54522,"adm0_a3":"COL","adm0cap":0},"geometry":{"type":"Point","coordinates":[-73.98,9.0003]}},{"type":"Feature","properties":{"name":"Ciénaga","scalerank":7,"pop_max":131171,"adm0_a3":"COL","adm0cap":0},"geometry":{"type":"Point","coordinates":[-74.25,11.0104]}},{"type":"Feature","properties":{"name":"Sincelejo","scalerank":7,"pop_max":261187,"adm0_a3":"COL","adm0cap":0},"geometry":{"type":"Point","coordinates":[-75.38,9.2904]}},{"type":"Feature","properties":{"name":"Tolú","scalerank":7,"pop_max":27390,"adm0_a3":"COL","adm0cap":0},"geometry":{"type":"Point","coordinates":[-75.572,9.5358]}},{"type":"Feature","properties":{"name":"Arauca","scalerank":7,"pop_max":69264,"adm0_a3":"COL","adm0cap":0},"geometry":{"type":"Point","coordinates":[-70.7616,7.0907]}},{"type":"Feature","properties":{"name":"Tame","scalerank":7,"pop_max":29099,"adm0_a3":"COL","adm0cap":0},"geometry":{"type":"Point","coordinates":[-71.74,6.4603]}},{"type":"Feature","properties":{"name":"Pamplona","scalerank":7,"pop_max":53587,"adm0_a3":"COL","adm0cap":0},"geometry":{"type":"Point","coordinates":[-72.66,7.3904]}},{"type":"Feature","properties":{"name":"Ocaña","scalerank":7,"pop_max":83511,"adm0_a3":"COL","adm0cap":0},"geometry":{"type":"Point","coordinates":[-73.35,8.2404]}},{"type":"Feature","properties":{"name":"Orocue","scalerank":7,"pop_max":2835,"adm0_a3":"COL","adm0cap":0},"geometry":{"type":"Point","coordinates":[-71.34,4.7946]}},{"type":"Feature","properties":{"name":"Inírida","scalerank":7,"pop_max":9065,"adm0_a3":"COL","adm0cap":0},"geometry":{"type":"Point","coordinates":[-67.9061,3.854]}},{"type":"Feature","properties":{"name":"San Martín","scalerank":7,"pop_max":16273,"adm0_a3":"COL","adm0cap":0},"geometry":{"type":"Point","coordinates":[-73.69,3.6904]}},{"type":"Feature","properties":{"name":"Puerto Carreño","scalerank":7,"pop_max":10216,"adm0_a3":"COL","adm0cap":0},"geometry":{"type":"Point","coordinates":[-67.493,6.185]}},{"type":"Feature","properties":{"name":"Willemstad","scalerank":7,"pop_max":146813,"adm0_a3":"CUW","adm0cap":0},"geometry":{"type":"Point","coordinates":[-68.8724,12.1123]}},{"type":"Feature","properties":{"name":"Oranjestad","scalerank":7,"pop_max":68775,"adm0_a3":"ABW","adm0cap":0},"geometry":{"type":"Point","coordinates":[-70.0255,12.5215]}},{"type":"Feature","properties":{"name":"San Fernando de Apure","scalerank":6,"pop_max":122701,"adm0_a3":"VEN","adm0cap":0},"geometry":{"type":"Point","coordinates":[-67.4699,7.9]}},{"type":"Feature","properties":{"name":"Barquisimeto","scalerank":6,"pop_max":1116000,"adm0_a3":"VEN","adm0cap":0},"geometry":{"type":"Point","coordinates":[-69.3019,10.0519]}},{"type":"Feature","properties":{"name":"Cumaná","scalerank":6,"pop_max":317603,"adm0_a3":"VEN","adm0cap":0},"geometry":{"type":"Point","coordinates":[-64.18,10.45]}},{"type":"Feature","properties":{"name":"Colón","scalerank":6,"pop_max":204000,"adm0_a3":"PAN","adm0cap":0},"geometry":{"type":"Point","coordinates":[-79.875,9.365]}},{"type":"Feature","properties":{"name":"Balboa","scalerank":6,"pop_max":62882,"adm0_a3":"PAN","adm0cap":0},"geometry":{"type":"Point","coordinates":[-79.5667,8.95]}},{"type":"Feature","properties":{"name":"Portoviejo","scalerank":6,"pop_max":213601,"adm0_a3":"ECU","adm0cap":0},"geometry":{"type":"Point","coordinates":[-80.46,-1.06]}},{"type":"Feature","properties":{"name":"Bello","scalerank":6,"pop_max":519670,"adm0_a3":"COL","adm0cap":0},"geometry":{"type":"Point","coordinates":[-75.57,6.33]}},{"type":"Feature","properties":{"name":"Montería","scalerank":6,"pop_max":275198,"adm0_a3":"COL","adm0cap":0},"geometry":{"type":"Point","coordinates":[-75.89,8.7575]}},{"type":"Feature","properties":{"name":"Bucaramanga","scalerank":6,"pop_max":1009000,"adm0_a3":"COL","adm0cap":0},"geometry":{"type":"Point","coordinates":[-73.1278,7.132]}},{"type":"Feature","properties":{"name":"Ibagué","scalerank":6,"pop_max":421685,"adm0_a3":"COL","adm0cap":0},"geometry":{"type":"Point","coordinates":[-75.2322,4.4389]}},{"type":"Feature","properties":{"name":"Popayán","scalerank":6,"pop_max":258750,"adm0_a3":"COL","adm0cap":0},"geometry":{"type":"Point","coordinates":[-76.61,2.42]}},{"type":"Feature","properties":{"name":"Santa Marta","scalerank":6,"pop_max":431781,"adm0_a3":"COL","adm0cap":0},"geometry":{"type":"Point","coordinates":[-74.2017,11.2472]}},{"type":"Feature","properties":{"name":"Cúcuta","scalerank":6,"pop_max":722146,"adm0_a3":"COL","adm0cap":0},"geometry":{"type":"Point","coordinates":[-72.52,7.92]}},{"type":"Feature","properties":{"name":"Villavicencio","scalerank":6,"pop_max":374763,"adm0_a3":"COL","adm0cap":0},"geometry":{"type":"Point","coordinates":[-73.635,4.1533]}},{"type":"Feature","properties":{"name":"Coro","scalerank":6,"pop_max":195227,"adm0_a3":"VEN","adm0cap":0},"geometry":{"type":"Point","coordinates":[-69.68,11.42]}},{"type":"Feature","properties":{"name":"Punto Fijo","scalerank":6,"pop_max":234736,"adm0_a3":"VEN","adm0cap":0},"geometry":{"type":"Point","coordinates":[-70.21,11.72]}},{"type":"Feature","properties":{"name":"La Esmeralda","scalerank":6,"pop_max":150,"adm0_a3":"VEN","adm0cap":0},"geometry":{"type":"Point","coordinates":[-65.5466,3.1738]}},{"type":"Feature","properties":{"name":"Maracay","scalerank":6,"pop_max":1007000,"adm0_a3":"VEN","adm0cap":0},"geometry":{"type":"Point","coordinates":[-67.5978,10.2488]}},{"type":"Feature","properties":{"name":"Paita","scalerank":6,"pop_max":56151,"adm0_a3":"PER","adm0cap":0},"geometry":{"type":"Point","coordinates":[-81.12,-5.09]}},{"type":"Feature","properties":{"name":"Talara","scalerank":6,"pop_max":99074,"adm0_a3":"PER","adm0cap":0},"geometry":{"type":"Point","coordinates":[-81.28,-4.58]}},{"type":"Feature","properties":{"name":"Tumbes","scalerank":6,"pop_max":109223,"adm0_a3":"PER","adm0cap":0},"geometry":{"type":"Point","coordinates":[-80.46,-3.57]}},{"type":"Feature","properties":{"name":"Gueppi","scalerank":6,"pop_max":10,"adm0_a3":"PER","adm0cap":0},"geometry":{"type":"Point","coordinates":[-75.23,-0.1166]}},{"type":"Feature","properties":{"name":"Machala","scalerank":6,"pop_max":213034,"adm0_a3":"ECU","adm0cap":0},"geometry":{"type":"Point","coordinates":[-79.96,-3.26]}},{"type":"Feature","properties":{"name":"Loja","scalerank":6,"pop_max":126368,"adm0_a3":"ECU","adm0cap":0},"geometry":{"type":"Point","coordinates":[-79.21,-3.99]}},{"type":"Feature","properties":{"name":"Manta","scalerank":6,"pop_max":183166,"adm0_a3":"ECU","adm0cap":0},"geometry":{"type":"Point","coordinates":[-80.73,-0.98]}},{"type":"Feature","properties":{"name":"Riobamba","scalerank":6,"pop_max":172464,"adm0_a3":"ECU","adm0cap":0},"geometry":{"type":"Point","coordinates":[-78.65,-1.67]}},{"type":"Feature","properties":{"name":"Tumaco","scalerank":6,"pop_max":86713,"adm0_a3":"COL","adm0cap":0},"geometry":{"type":"Point","coordinates":[-78.81,1.81]}},{"type":"Feature","properties":{"name":"Fonte Boa","scalerank":6,"pop_max":16060,"adm0_a3":"BRA","adm0cap":0},"geometry":{"type":"Point","coordinates":[-66.0916,-2.5138]}},{"type":"Feature","properties":{"name":"Tonantins","scalerank":6,"pop_max":4561,"adm0_a3":"BRA","adm0cap":0},"geometry":{"type":"Point","coordinates":[-67.8019,-2.8727]}},{"type":"Feature","properties":{"name":"Tefé","scalerank":6,"pop_max":51437,"adm0_a3":"BRA","adm0cap":0},"geometry":{"type":"Point","coordinates":[-64.7,-3.36]}},{"type":"Feature","properties":{"name":"São Gabriel da Cachoeira","scalerank":6,"pop_max":15231,"adm0_a3":"BRA","adm0cap":0},"geometry":{"type":"Point","coordinates":[-67.0833,-0.1332]}},{"type":"Feature","properties":{"name":"Mérida","scalerank":4,"pop_max":345489,"adm0_a3":"VEN","adm0cap":0},"geometry":{"type":"Point","coordinates":[-71.1825,8.5695]}},{"type":"Feature","properties":{"name":"Puerto Ayacucho","scalerank":4,"pop_max":52526,"adm0_a3":"VEN","adm0cap":0},"geometry":{"type":"Point","coordinates":[-67.6236,5.6639]}},{"type":"Feature","properties":{"name":"Piura","scalerank":4,"pop_max":396932,"adm0_a3":"PER","adm0cap":0},"geometry":{"type":"Point","coordinates":[-80.63,-5.21]}},{"type":"Feature","properties":{"name":"Iquitos","scalerank":4,"pop_max":458729,"adm0_a3":"PER","adm0cap":0},"geometry":{"type":"Point","coordinates":[-73.25,-3.75]}},{"type":"Feature","properties":{"name":"Cuenca","scalerank":4,"pop_max":286878,"adm0_a3":"ECU","adm0cap":0},"geometry":{"type":"Point","coordinates":[-79.0,-2.9]}},{"type":"Feature","properties":{"name":"Manizales","scalerank":4,"pop_max":375848,"adm0_a3":"COL","adm0cap":0},"geometry":{"type":"Point","coordinates":[-75.52,5.06]}},{"type":"Feature","properties":{"name":"Pasto","scalerank":4,"pop_max":382236,"adm0_a3":"COL","adm0cap":0},"geometry":{"type":"Point","coordinates":[-77.2811,1.2136]}},{"type":"Feature","properties":{"name":"Barranquilla","scalerank":4,"pop_max":1798000,"adm0_a3":"COL","adm0cap":0},"geometry":{"type":"Point","coordinates":[-74.8019,10.9619]}},{"type":"Feature","properties":{"name":"San Cristóbal","scalerank":3,"pop_max":438798,"adm0_a3":"VEN","adm0cap":0},"geometry":{"type":"Point","coordinates":[-72.25,7.77]}},{"type":"Feature","properties":{"name":"Valencia","scalerank":3,"pop_max":1770000,"adm0_a3":"VEN","adm0cap":0},"geometry":{"type":"Point","coordinates":[-67.982,10.2319]}},{"type":"Feature","properties":{"name":"Panama City","scalerank":3,"pop_max":1281000,"adm0_a3":"PAN","adm0cap":1},"geometry":{"type":"Point","coordinates":[-79.535,8.97]}},{"type":"Feature","properties":{"name":"Quito","scalerank":3,"pop_max":1701000,"adm0_a3":"ECU","adm0cap":1},"geometry":{"type":"Point","coordinates":[-78.502,-0.213]}},{"type":"Feature","properties":{"name":"Cartagena","scalerank":3,"pop_max":887000,"adm0_a3":"COL","adm0cap":0},"geometry":{"type":"Point","coordinates":[-75.5163,10.4017]}},{"type":"Feature","properties":{"name":"Mitú","scalerank":3,"pop_max":5917,"adm0_a3":"COL","adm0cap":0},"geometry":{"type":"Point","coordinates":[-70.1736,1.1983]}},{"type":"Feature","properties":{"name":"Leticia","scalerank":3,"pop_max":59575,"adm0_a3":"COL","adm0cap":0},"geometry":{"type":"Point","coordinates":[-69.9553,-4.2012]}},{"type":"Feature","properties":{"name":"Maracaibo","scalerank":2,"pop_max":2072000,"adm0_a3":"VEN","adm0cap":0},"geometry":{"type":"Point","coordinates":[-71.6619,10.7319]}},{"type":"Feature","properties":{"name":"Guayaquil","scalerank":2,"pop_max":2514000,"adm0_a3":"ECU","adm0cap":0},"geometry":{"type":"Point","coordinates":[-79.922,-2.2181]}},{"type":"Feature","properties":{"name":"Medellín","scalerank":2,"pop_max":3297000,"adm0_a3":"COL","adm0cap":0},"geometry":{"type":"Point","coordinates":[-75.577,6.2769]}},{"type":"Feature","properties":{"name":"Cali","scalerank":2,"pop_max":2254000,"adm0_a3":"COL","adm0cap":0},"geometry":{"type":"Point","coordinates":[-76.5019,3.4019]}},{"type":"Feature","properties":{"name":"Caracas","scalerank":1,"pop_max":2985000,"adm0_a3":"VEN","adm0cap":1},"geometry":{"type":"Point","coordinates":[-66.919,10.5029]}},{"type":"Feature","properties":{"name":"Bogota","scalerank":0,"pop_max":7772000,"adm0_a3":"COL","adm0cap":1},"geometry":{"type":"Point","coordinates":[-74.0853,4.5984]}}]}